{
  "type": "FeatureCollection",
  "features": [
    {
      "type": "Feature",
      "id": "route-14",
      "properties": {
        "id": "14",
        "number": "14",
        "color": "#e5aa22",
        "from": "Автовокзал",
        "to": "Проспект Мира"
      },
      "geometry": {
        "type": "LineString",
        "coordinates": [
          [42.1443, 47.5134],
          [42.1519, 47.5093],
          [42.1599, 47.5068],
          [42.1691, 47.5094],
          [42.1769, 47.5128],
          [42.1848, 47.5166],
          [42.1925, 47.5215]
        ]
      }
    },
    {
      "type": "Feature",
      "id": "route-18",
      "properties": {
        "id": "18",
        "number": "18",
        "color": "#3d7e70",
        "from": "Площадь Ленина",
        "to": "Проспект Дружбы"
      },
      "geometry": {
        "type": "LineString",
        "coordinates": [
          [42.1519, 47.5093],
          [42.1599, 47.5068],
          [42.1691, 47.5094],
          [42.1769, 47.5128],
          [42.1848, 47.5166]
        ]
      }
    }
  ]
}
